{
    "links": {
        "self": "http://www.neowsapp.com/rest/v1/neo/3779444?api_key=iIulBulltgU6a56xZRHN4H3l9WmuAYTsLGpBGhQ2"
    },
    "id": "3779444",
    "neo_reference_id": "3779444",
    "name": "(2017 OZ67)",
    "designation": "2017 OZ67",
    "nasa_jpl_url": "http://ssd.jpl.nasa.gov/sbdb.cgi?sstr=3779444",
    "absolute_magnitude_h": 27.0,
    "estimated_diameter": {
        "kilometers": {
            "estimated_diameter_min": 0.0105816886,
            "estimated_diameter_max": 0.023661375
        },
        "meters": {
            "estimated_diameter_min": 10.5816885933,
            "estimated_diameter_max": 23.6613750114
        },
        "miles": {
            "estimated_diameter_min": 0.0065751544,
            "estimated_diameter_max": 0.0147024923
        },
        "feet": {
            "estimated_diameter_min": 34.7168272045,
            "estimated_diameter_max": 77.6291855923
        }
    },
    "is_potentially_hazardous_asteroid": false,
    "close_approach_data": [
        {
            "close_approach_date": "2017-03-14",
            "close_approach_date_full": "2017-Mar-14 15:39",
            "epoch_date_close_approach": 1489505940000,
            "relative_velocity": {
                "kilometers_per_second": "2.6940709615",
                "kilometers_per_hour": "9698.6554612946",
                "miles_per_hour": "6026.3673337139"
            },
            "miss_distance": {
                "astronomical": "0.3281381355",
                "lunar": "127.6457347095",
                "kilometers": "49088766.136571385",
                "miles": "30502344.864739713"
            },
            "orbiting_body": "Earth"
        },
        {
            "close_approach_date": "2017-07-11",
            "close_approach_date_full": "2017-Jul-11 02:36",
            "epoch_date_close_approach": 1499740560000,
            "relative_velocity": {
                "kilometers_per_second": "7.6465482495",
                "kilometers_per_hour": "27527.5736982196",
                "miles_per_hour": "17104.5637793187"
            },
            "miss_distance": {
                "astronomical": "0.0246069989",
                "lunar": "9.5721225721",
                "kilometers": "3681154.622532343",
                "miles": "2287363.4159906134"
            },
            "orbiting_body": "Earth"
        }
    ],
    "orbital_data": {
        "orbit_id": "2",
        "orbit_determination_date": "2017-08-07 06:18:44",
        "first_observation_date": "2017-07-26",
        "last_observation_date": "2017-07-30",
        "data_arc_in_days": 4,
        "observations_used": 11,
        "orbit_uncertainty": "9",
        "minimum_orbit_intersection": ".0235391",
        "jupiter_tisserand_invariant": "4.722",
        "epoch_osculation": "2457963.5",
        "eccentricity": ".3158674250030038",
        "semi_major_axis": "1.389030077558087",
        "inclination": "5.365795302823982",
        "ascending_node_longitude": "120.664797769174",
        "orbital_period": "597.9514201907529",
        "perihelion_distance": ".9502807237080914",
        "perihelion_argument": "120.6898153047965",
        "aphelion_distance": "1.827779431408082",
        "perihelion_time": "2457904.955322811436",
        "mean_anomaly": "35.24715064839138",
        "mean_motion": ".6020555982376564",
        "equinox": "J2000",
        "orbit_class": {
            "orbit_class_type": "APO",
            "orbit_class_description": "Near-Earth asteroid orbits which cross the Earth’s orbit similar to that of 1862 Apollo",
            "orbit_class_range": "a (semi-major axis) > 1.0 AU; q (perihelion) < 1.017 AU"
        }
    },
    "is_sentry_object": false
}